JASON-3                 
1 41240U 16002A   21302.88235371 -.00000037  00000-0  10359-3 0  9997
2 41240  66.0433  47.8018 0007726 267.7644  92.2487 12.80931234270386
